OBJECT_NAME,OBJECT_ID,EPOCH,MEAN_MOTION,ECCENTRICITY,INCLINATION,RA_OF_ASC_NODE,ARG_OF_PERICENTER,MEAN_ANOMALY,EPHEMERIS_TYPE,CLASSIFICATION_TYPE,NORAD_CAT_ID,ELEMENT_SET_NO,REV_AT_EPOCH,BSTAR,MEAN_MOTION_DOT,MEAN_MOTION_DDOT
COSMOS 2058,1990-010A,2026-06-30T20:01:05.331072,15.12097623,.00085281,82.4696,295.8971,307.7755,52.2702,0,U,20465,999,95933,.17659052E-3,.307E-4,0
SL-14 R/B,1990-010B,2026-06-30T22:13:44.406624,14.83655168,.00182597,82.5022,161.0419,288.2739,71.6489,0,U,20466,999,94527,.44912469E-4,.395E-5,0
SL-14 R/B,1990-018B,2026-06-30T22:01:59.267712,14.82225590,.00176786,82.5221,117.2745,80.2909,280.0301,0,U,20511,999,93935,.51428921E-4,.435E-5,0
HST,1990-037B,2026-06-30T20:00:30.930048,15.30907580,.00014927,28.4735,347.2986,312.4746,47.5724,0,U,20580,999,79066,.23748019E-3,.7536E-4,0
SL-16 R/B,1990-046B,2026-06-30T22:40:49.899936,14.15024828,.00125665,70.9995,60.0551,139.5385,220.6674,0,U,20625,999,86441,-.10335694E-3,-.248E-5,0
COSMOS 2084,1990-055A,2026-06-30T17:43:18.056352,15.06172112,.0006484,62.7914,309.8362,301.3129,58.7336,0,U,20663,999,95334,.15697849E-3,.2109E-4,0
SL-6 R/B(2),1990-055D,2026-06-30T16:17:48.136704,15.04042629,.00428491,62.7806,229.4640,6.9812,353.1874,0,U,20666,999,95518,.11293292E-3,.1391E-4,0
SL-8 R/B,1990-078B,2026-06-30T20:53:02.599872,14.93008493,.03468645,82.9024,149.2759,352.2360,7.3564,0,U,20775,999,82616,.88628305E-3,.31325E-3,0
SL-8 R/B,1991-006B,2026-06-30T17:05:55.370688,13.77507191,.00238695,82.9423,85.9723,78.8817,310.4137,0,U,21088,999,77963,.65386008E-4,.81E-6,0
OKEAN-3,1991-039A,2026-06-30T16:46:12.807840,15.05383664,.00125134,82.5153,227.2795,308.0128,51.9968,0,U,21397,999,88203,.1263371E-3,.1841E-4,0
COSMOS 2151,1991-042A,2026-06-30T22:20:26.096640,15.00477856,.00132162,82.4969,334.4163,42.1168,318.1070,0,U,21422,999,88017,.11968718E-3,.1536E-4,0
SL-14 R/B,1991-042B,2026-06-30T22:15:34.071552,14.81910757,.00158103,82.4935,114.0110,225.4336,134.5588,0,U,21423,999,86984,.41810756E-4,.355E-5,0
ERS-1,1991-050A,2026-06-30T02:14:12.463584,14.39525449,.00310456,98.7794,202.1065,227.2929,132.5643,0,U,21574,999,83190,.12840706E-3,.356E-5,0
ARIANE 40 R/B,1991-050F,2026-06-30T13:41:57.923520,14.42964621,.00044705,98.1868,229.4660,92.7324,267.4379,0,U,21610,999,83527,.96180399E-4,.28E-5,0
INTERCOSMOS 25,1991-086A,2026-06-30T13:34:24.821184,12.12217100,.14840109,82.6033,241.7143,233.5038,112.0221,0,U,21819,999,51036,.11637115E-3,.589E-5,0
SL-8 R/B,1992-008B,2026-06-30T22:23:44.332800,13.75980499,.00347712,82.9260,183.5669,175.8603,201.5231,0,U,21876,999,72499,.12077824E-3,.133E-5,0
SL-8 R/B,1992-020B,2026-06-30T17:17:21.920640,13.75550005,.00287854,82.9299,69.8052,345.0813,33.2565,0,U,21938,999,71667,.40916491E-4,.55E-6,0
USA 81,1992-023A,2026-06-30T23:11:59.318592,14.32401710,.00025272,85.0065,66.0542,72.7702,287.3767,0,U,21949,999,11100,.56657025E-4,.173E-5,0
COSMOS 2219,1992-076A,2026-06-30T08:20:47.017824,14.14108103,.00173094,71.0604,142.5599,21.7391,338.4463,0,U,22219,999,73430,.12354225E-3,.189E-5,0
SL-16 R/B,1992-076B,2026-06-30T12:23:09.229056,14.16874884,.00150628,71.0014,310.7028,281.0823,149.1127,0,U,22220,999,73781,-.8488544E-4,-.218E-5,0
COSMOS 2221,1992-080A,2026-06-30T23:30:28.648800,14.96569460,.00145905,82.5032,170.5498,164.9606,195.2053,0,U,22236,999,79773,.14152014E-3,.1639E-4,0
SL-16 R/B,1992-093B,2026-06-30T21:09:35.765280,14.15463505,.00032069,71.0213,126.6426,162.6753,197.4480,0,U,22285,999,72917,.16854972E-3,.282E-5,0
COSMOS 2228,1992-094A,2026-06-30T22:02:25.328544,14.97635084,.00160311,82.5184,128.8905,282.2628,77.6800,0,U,22286,999,79300,.16879527E-3,.2004E-4,0
SL-16 R/B,1993-016B,2026-06-30T10:32:16.937088,14.15314729,.00093441,71.0088,338.3730,164.1549,195.9868,0,U,22566,999,71812,-.10329568E-3,-.249E-5,0
COSMOS 2242,1993-024A,2026-06-30T21:13:04.999296,14.96945823,.00144334,82.5185,158.4382,286.3555,73.6080,0,U,22626,999,79732,.16327451E-3,.1905E-4,0
SL-16 R/B,1993-059B,2026-06-30T23:17:53.481696,14.17248843,.00158801,70.9898,132.2367,31.2561,328.9503,0,U,22803,999,69558,.14434371E-3,.244E-5,0
ARIANE 40 R/B,1993-061H,2026-06-30T14:41:49.855776,14.32913223,.0009708,98.4814,248.1903,314.2454,45.7933,0,U,22830,999,71027,.88793858E-4,.2E-5,0
COSMOS 2278,1994-023A,2026-06-30T18:07:07.194432,14.14397186,.00103266,71.0549,298.5383,227.0541,132.9716,0,U,23087,999,66079,-.88190868E-4,-.216E-5,0
SL-16 R/B,1994-023B,2026-06-30T11:13:45.937920,14.15026845,.00018743,70.9982,194.0407,173.8546,186.2600,0,U,23088,999,66204,-.7920096E-4,-.201E-5,0
SL-16 R/B,1994-074B,2026-06-30T13:21:39.253248,14.79513388,.00058974,97.6986,207.7204,201.4157,317.4582,0,U,23343,999,70393,.62801491E-4,.42E-5,0
