COSMOS 2058             
1 20465U 90010A   26181.83408948  .00003070  00000+0  17659-3 0  9999
2 20465  82.4696 295.8971 0008528 307.7755  52.2702 15.12097623959335
SL-14 R/B               
1 20466U 90010B   26181.92620841  .00000395  00000+0  44912-4 0  9998
2 20466  82.5022 161.0419 0018259 288.2739  71.6489 14.83655168945274
SL-14 R/B               
1 20511U 90018B   26181.91804708  .00000435  00000+0  51429-4 0  9998
2 20511  82.5221 117.2745 0017678  80.2909 280.0301 14.82225590939356
HST                     
1 20580U 90037B   26181.83369132  .00007536  00000+0  23748-3 0  9994
2 20580  28.4735 347.2986 0001492 312.4746  47.5724 15.30907580790663
SL-16 R/B               
1 20625U 90046B   26181.94502199 -.00000248  00000+0 -10336-3 0  9992
2 20625  70.9995  60.0551 0012566 139.5385 220.6674 14.15024828864412
COSMOS 2084             
1 20663U 90055A   26181.73840343  .00002109  00000+0  15698-3 0  9999
2 20663  62.7914 309.8362 0006484 301.3129  58.7336 15.06172112953342
SL-6 R/B(2)             
1 20666U 90055D   26181.67902936  .00001391  00000+0  11293-3 0  9991
2 20666  62.7806 229.4640 0042849   6.9812 353.1874 15.04042629955183
SL-8 R/B                
1 20775U 90078B   26181.87016898  .00031325  00000+0  88628-3 0  9998
2 20775  82.9024 149.2759 0346864 352.2360   7.3564 14.93008493826166
SL-8 R/B                
1 21088U 91006B   26181.71244642  .00000081  00000+0  65386-4 0  9993
2 21088  82.9423  85.9723 0023869  78.8817 310.4137 13.77507191779632
OKEAN-3                 
1 21397U 91039A   26181.69875935  .00001841  00000+0  12634-3 0  9996
2 21397  82.5153 227.2795 0012513 308.0128  51.9968 15.05383664882036
COSMOS 2151             
1 21422U 91042A   26181.93085760  .00001536  00000+0  11969-3 0  9996
2 21422  82.4969 334.4163 0013216  42.1168 318.1070 15.00477856880177
SL-14 R/B               
1 21423U 91042B   26181.92747768  .00000355  00000+0  41811-4 0  9997
2 21423  82.4935 114.0110 0015810 225.4336 134.5588 14.81910757869845
ERS-1                   
1 21574U 91050A   26181.09319981  .00000356  00000+0  12841-3 0  9994
2 21574  98.7794 202.1065 0031045 227.2929 132.5643 14.39525449831908
ARIANE 40 R/B           
1 21610U 91050F   26181.57080930  .00000280  00000+0  96180-4 0  9992
2 21610  98.1868 229.4660 0004470  92.7324 267.4379 14.42964621835275
INTERCOSMOS 25          
1 21819U 91086A   26181.56556506  .00000589  00000+0  11637-3 0  9993
2 21819  82.6033 241.7143 1484010 233.5038 112.0221 12.12217100510360
SL-8 R/B                
1 21876U 92008B   26181.93315200  .00000133  00000+0  12078-3 0  9991
2 21876  82.9260 183.5669 0034771 175.8603 201.5231 13.75980499724993
SL-8 R/B                
1 21938U 92020B   26181.72039260  .00000055  00000+0  40916-4 0  9996
2 21938  82.9299  69.8052 0028785 345.0813  33.2565 13.75550005716670
USA 81                  
1 21949U 92023A   26181.96665878  .00000173  00000+0  56657-4 0  9997
2 21949  85.0065  66.0542 0002527  72.7702 287.3767 14.32401710111001
COSMOS 2219             
1 22219U 92076A   26181.34776641  .00000189  00000+0  12354-3 0  9991
2 22219  71.0604 142.5599 0017309  21.7391 338.4463 14.14108103734305
SL-16 R/B               
1 22220U 92076B   26181.51607904 -.00000218  00000+0 -84885-4 0  9991
2 22220  71.0014 310.7028 0015062 281.0823 149.1127 14.16874884737814
COSMOS 2221             
1 22236U 92080A   26181.97949825  .00001639  00000+0  14152-3 0  9999
2 22236  82.5032 170.5498 0014590 164.9606 195.2053 14.96569460797730
SL-16 R/B               
1 22285U 92093B   26181.88166395  .00000282  00000+0  16855-3 0  9995
2 22285  71.0213 126.6426 0003206 162.6753 197.4480 14.15463505729176
COSMOS 2228             
1 22286U 92094A   26181.91834871  .00002004  00000+0  16880-3 0  9994
2 22286  82.5184 128.8905 0016031 282.2628  77.6800 14.97635084793008
SL-16 R/B               
1 22566U 93016B   26181.43908492 -.00000249  00000+0 -10330-3 0  9993
2 22566  71.0088 338.3730 0009344 164.1549 195.9868 14.15314729718126
COSMOS 2242             
1 22626U 93024A   26181.88408564  .00001905  00000+0  16327-3 0  9993
2 22626  82.5185 158.4382 0014433 286.3555  73.6080 14.96945823797322
SL-16 R/B               
1 22803U 93059B   26181.97075789  .00000244  00000+0  14434-3 0  9999
2 22803  70.9898 132.2367 0015880  31.2561 328.9503 14.17248843695587
ARIANE 40 R/B           
1 22830U 93061H   26181.61238259  .00000200  00000+0  88794-4 0  9999
2 22830  98.4814 248.1903 0009708 314.2454  45.7933 14.32913223710273
COSMOS 2278             
1 23087U 94023A   26181.75494438 -.00000216  00000+0 -88191-4 0  9991
2 23087  71.0549 298.5383 0010326 227.0541 132.9716 14.14397186660790
SL-16 R/B               
1 23088U 94023B   26181.46789280 -.00000201  00000+0 -79201-4 0  9998
2 23088  70.9982 194.0407 0001874 173.8546 186.2600 14.15026845662044
SL-16 R/B               
1 23343U 94074B   26181.55670432  .00000420  00000+0  62801-4 0  9995
2 23343  97.6986 207.7204 0005897 201.4157 317.4582 14.79513388703934
